{
  "batch_id": "weather-metar-20260513-141829-d37711b4",
  "generated_at": "2026-05-13T14:18:29.518361+00:00",
  "mode": "research_read_only",
  "live_trading": "disabled",
  "source": "aviationweather.gov-metar",
  "warning": "METAR is station observation evidence, not an order signal.",
  "observations": [
    {
      "batch_id": "weather-metar-20260513-141829-d37711b4",
      "collected_at": "2026-05-13 14:18:29.518361+00:00",
      "station_id": "RKSI",
      "station_name": "Seoul/Incheon Intl, 28, KR",
      "report_time": "2026-05-13 14:00:00+00:00",
      "obs_time": "2026-05-13 14:00:00+00:00",
      "temp_c": "14",
      "dewpoint_c": "14",
      "wind_dir": 320,
      "wind_speed": 4,
      "source_url": "https://aviationweather.gov/api/data/metar",
      "raw_metar": "METAR RKSI 131400Z 32004KT 290V350 9999 SCT003 BKN120 14/14 Q1012 NOSIG",
      "raw": {
        "icaoId": "RKSI",
        "receiptTime": "2026-05-13T14:04:21.615Z",
        "obsTime": 1778680800,
        "reportTime": "2026-05-13T14:00:00.000Z",
        "temp": 14,
        "dewp": 14,
        "wdir": 320,
        "wspd": 4,
        "visib": "6+",
        "altim": 1012,
        "qcField": 16,
        "metarType": "METAR",
        "rawOb": "METAR RKSI 131400Z 32004KT 290V350 9999 SCT003 BKN120 14/14 Q1012 NOSIG",
        "lat": 37.469,
        "lon": 126.451,
        "elev": 7,
        "name": "Seoul/Incheon Intl, 28, KR",
        "cover": "BKN",
        "clouds": [
          {
            "cover": "SCT",
            "base": 300
          },
          {
            "cover": "BKN",
            "base": 12000
          }
        ],
        "fltCat": "VFR"
      }
    },
    {
      "batch_id": "weather-metar-20260513-141829-d37711b4",
      "collected_at": "2026-05-13 14:18:29.518361+00:00",
      "station_id": "KAUS",
      "station_name": "Austin/Bergstrom Intl, TX, US",
      "report_time": "2026-05-13 14:00:00+00:00",
      "obs_time": "2026-05-13 13:53:00+00:00",
      "temp_c": "22.8",
      "dewpoint_c": "17.8",
      "wind_dir": 230,
      "wind_speed": 3,
      "source_url": "https://aviationweather.gov/api/data/metar",
      "raw_metar": "METAR KAUS 131353Z 23003KT 10SM CLR 23/18 A3011 RMK AO2 SLP186 T02280178",
      "raw": {
        "icaoId": "KAUS",
        "receiptTime": "2026-05-13T14:08:21.813Z",
        "obsTime": 1778680380,
        "reportTime": "2026-05-13T14:00:00.000Z",
        "temp": 22.8,
        "dewp": 17.8,
        "wdir": 230,
        "wspd": 3,
        "visib": "10+",
        "altim": 1019.7,
        "slp": 1018.6,
        "qcField": 4,
        "metarType": "METAR",
        "rawOb": "METAR KAUS 131353Z 23003KT 10SM CLR 23/18 A3011 RMK AO2 SLP186 T02280178",
        "lat": 30.1831,
        "lon": -97.6806,
        "elev": 148,
        "name": "Austin/Bergstrom Intl, TX, US",
        "cover": "CLR",
        "clouds": [],
        "fltCat": "VFR"
      }
    },
    {
      "batch_id": "weather-metar-20260513-141829-d37711b4",
      "collected_at": "2026-05-13 14:18:29.518361+00:00",
      "station_id": "EGLC",
      "station_name": "London City Arpt, EN, GB",
      "report_time": "2026-05-13 14:00:00+00:00",
      "obs_time": "2026-05-13 13:50:00+00:00",
      "temp_c": "9",
      "dewpoint_c": "5",
      "wind_dir": 290,
      "wind_speed": 12,
      "source_url": "https://aviationweather.gov/api/data/metar",
      "raw_metar": "METAR EGLC 131350Z 29012KT 260V330 9999 -RA VCTS SCT025CB BKN037 BKN046 09/05 Q1001 RETSRA",
      "raw": {
        "icaoId": "EGLC",
        "receiptTime": "2026-05-13T13:54:24.214Z",
        "obsTime": 1778680200,
        "reportTime": "2026-05-13T14:00:00.000Z",
        "temp": 9,
        "dewp": 5,
        "wdir": 290,
        "wspd": 12,
        "visib": "6+",
        "altim": 1001,
        "qcField": 0,
        "wxString": "-RA VCTS",
        "metarType": "METAR",
        "rawOb": "METAR EGLC 131350Z 29012KT 260V330 9999 -RA VCTS SCT025CB BKN037 BKN046 09/05 Q1001 RETSRA",
        "lat": 51.505,
        "lon": 0.055,
        "elev": 10,
        "name": "London City Arpt, EN, GB",
        "cover": "BKN",
        "clouds": [
          {
            "cover": "SCT",
            "base": 2500
          },
          {
            "cover": "BKN",
            "base": 3700
          },
          {
            "cover": "BKN",
            "base": 4600
          }
        ],
        "fltCat": "VFR"
      }
    }
  ]
}